NORAD_CAT_ID,OBJECT_NAME,OBJECT_TYPE,EPOCH,MEAN_MOTION,ECCENTRICITY,INCLINATION,RA_OF_ASC_NODE,ARG_OF_PERICENTER,MEAN_ANOMALY,BSTAR,MEAN_MOTION_DOT,MEAN_MOTION_DDOT,TLE_LINE0,TLE_LINE1,TLE_LINE2,SEMIMAJOR_AXIS,PERIOD,APOGEE,PERIGEE,DECAYED
52332.0,STARLINK-3831,PAYLOAD,2023-05-02 12:05:03,15.08851021,0.0001358,53.2158,207.6785,87.6857,272.4291,0.0003153,4.735e-05,0.0,0 STARLINK-3831,1 52332U 22045B   23122.50351712  .00004735  00000-0  31530-3 0  9996,2 52332  53.2158 207.6785 0001358  87.6857 272.4291 15.08851021 58308,6917.847,95.437,540.651,538.772,0.0
52332.0,STARLINK-3831,PAYLOAD,2023-05-02 15:15:49,15.08857541,0.0001347,53.216,207.0833,89.0998,271.0148,0.0004434,6.779e-05,0.0,0 STARLINK-3831,1 52332U 22045B   23122.63599434  .00006779  00000-0  44340-3 0  9998,2 52332  53.2160 207.0833 0001347  89.0998 271.0148 15.08857541 58320,6917.827,95.436,540.624,538.76,0.0
52332.0,STARLINK-3831,PAYLOAD,2023-05-03 05:34:18,15.08842704,0.0001813,53.2169,204.4088,80.2382,279.8814,0.00014607,2.038e-05,0.0,0 STARLINK-3831,1 52332U 22045B   23123.23216099  .00002038  00000-0  14607-3 0  9995,2 52332  53.2169 204.4088 0001813  80.2382 279.8814 15.08842704 58411,6917.872,95.437,540.991,538.483,0.0
52332.0,STARLINK-3831,PAYLOAD,2023-05-03 11:55:51,15.08839131,0.000137,53.2161,203.2177,90.8328,269.2821,4.6192e-05,4.47e-06,0.0,0 STARLINK-3831,1 52332U 22045B   23123.49712101  .00000447  00000-0  46192-4 0  9995,2 52332  53.2161 203.2177 0001370  90.8328 269.2821 15.08839131 58459,6917.883,95.438,540.696,538.8,0.0
52332.0,STARLINK-3831,PAYLOAD,2023-05-03 16:42:00,15.08843309,0.0001326,53.2161,202.3251,97.1261,262.9882,0.00014541,2.027e-05,0.0,0 STARLINK-3831,1 52332U 22045B   23123.69583935  .00002027  00000-0  14541-3 0  9996,2 52332  53.2161 202.3251 0001326  97.1261 262.9882 15.08843309 58481,6917.87,95.437,540.653,538.818,0.0
52332.0,STARLINK-3831,PAYLOAD,2023-05-04 05:25:05,15.08840331,0.0001415,53.2171,199.9449,102.6563,257.4588,7.0932e-05,8.41e-06,0.0,0 STARLINK-3831,1 52332U 22045B   23124.22576067  .00000841  00000-0  70932-4 0  9993,2 52332  53.2171 199.9449 0001415 102.6563 257.4588 15.08840331 58561,6917.879,95.438,540.723,538.765,0.0
52332.0,STARLINK-3831,PAYLOAD,2023-05-04 11:46:38,15.08847543,0.0001264,53.2155,198.7564,91.7397,268.374,0.00018909,2.723e-05,0.0,0 STARLINK-3831,1 52332U 22045B   23124.49071843  .00002723  00000-0  18909-3 0  9990,2 52332  53.2155 198.7564 0001264  91.7397 268.3740 15.08847543 58601,6917.857,95.437,540.597,538.848,0.0
52332.0,STARLINK-3831,PAYLOAD,2023-05-04 21:18:57,15.08840805,0.0001029,53.2146,196.974,90.5488,269.5622,0.00010146,1.327e-05,0.0,0 STARLINK-3831,1 52332U 22045B   23124.88816088  .00001327  00000-0  10146-3 0  9995,2 52332  53.2146 196.9740 0001029  90.5488 269.5622 15.08840805 58666,6917.878,95.438,540.455,539.031,0.0
52332.0,STARLINK-3831,PAYLOAD,2023-05-05 08:26:39,15.08833218,0.0001133,53.2145,194.893,89.3694,270.7428,0.00010332,1.357e-05,0.0,0 STARLINK-3831,1 52332U 22045B   23125.35184670  .00001357  00000-0  10332-3 0  9993,2 52332  53.2145 194.8930 0001133  89.3694 270.7428 15.08833218 58730,6917.901,95.438,540.55,538.982,0.0
52332.0,STARLINK-3831,PAYLOAD,2023-05-05 21:09:44,15.08838652,0.0001147,53.2148,192.5126,92.0581,268.0542,7.7554e-05,9.47e-06,0.0,0 STARLINK-3831,1 52332U 22045B   23125.88176455  .00000947  00000-0  77554-4 0  9997,2 52332  53.2148 192.5126 0001147  92.0581 268.0542 15.08838652 58819,6917.885,95.438,540.543,538.956,0.0
52332.0,STARLINK-3831,PAYLOAD,2023-05-06 08:17:26,15.08838665,0.0001086,53.2145,190.4316,94.3488,265.7629,7.7789e-05,9.5e-06,0.0,0 STARLINK-3831,1 52332U 22045B   23126.34544575  .00000950  00000-0  77789-4 0  9995,2 52332  53.2145 190.4316 0001086  94.3488 265.7629 15.08838665 58888,6917.884,95.438,540.501,538.998,0.0
52332.0,STARLINK-3831,PAYLOAD,2023-05-07 03:22:03,15.08850719,0.00011,53.2158,186.8635,97.4392,262.6725,0.00029565,4.422e-05,0.0,0 STARLINK-3831,1 52332U 22045B   23127.14031887  .00004422  00000-0  29565-3 0  9997,2 52332  53.2158 186.8635 0001100  97.4392 262.6725 15.08850719 59002,6917.848,95.437,540.474,538.952,0.0
52332.0,STARLINK-3831,PAYLOAD,2023-05-07 11:18:58,15.08855643,0.0001039,53.2148,185.3763,94.5731,265.538,0.00032755,4.931e-05,0.0,0 STARLINK-3831,1 52332U 22045B   23127.47151571  .00004931  00000-0  32755-3 0  9996,2 52332  53.2148 185.3763 0001039  94.5731 265.5380 15.08855643 59058,6917.833,95.437,540.416,538.979,0.0
52332.0,STARLINK-3831,PAYLOAD,2023-05-07 20:51:17,15.08848852,0.0001085,53.2156,183.5919,84.4767,275.6349,0.00016524,2.344e-05,0.0,0 STARLINK-3831,1 52332U 22045B   23127.86895744  .00002344  00000-0  16524-3 0  9998,2 52332  53.2156 183.5919 0001085  84.4767 275.6349 15.08848852 59116,6917.853,95.437,540.469,538.968,0.0
52332.0,STARLINK-3831,PAYLOAD,2023-05-08 00:02:04,15.08845275,0.0001463,53.213,182.9971,83.4059,276.7099,0.0001238,1.683e-05,0.0,0 STARLINK-3831,1 52332U 22045B   23128.00144009  .00001683  00000-0  12380-3 0  9997,2 52332  53.2130 182.9971 0001463  83.4059 276.7099 15.08845275 59134,6917.864,95.437,540.741,538.717,0.0
52332.0,STARLINK-3831,PAYLOAD,2023-05-08 11:09:46,15.08835588,0.0001242,53.2142,180.9154,84.196,275.9173,-8.6554e-05,-1.665e-05,0.0,0 STARLINK-3831,1 52332U 22045B   23128.46512354 -.00001665  00000-0 -86554-4 0  9996,2 52332  53.2142 180.9154 0001242  84.1960 275.9173 15.08835588 59200,6917.894,95.438,540.618,538.9,0.0
52332.0,STARLINK-3831,PAYLOAD,2023-05-08 20:42:05,15.08838453,0.0001262,53.2142,179.1322,82.1938,277.9198,3.9875e-05,3.47e-06,0.0,0 STARLINK-3831,1 52332U 22045B   23128.86256422  .00000347  00000-0  39875-4 0  9999,2 52332  53.2142 179.1322 0001262  82.1938 277.9198 15.08838453 59261,6917.885,95.438,540.623,538.877,0.0
52332.0,STARLINK-3831,PAYLOAD,2023-05-09 11:00:33,15.08846472,0.0001236,53.2149,176.455,78.7416,281.3715,0.00011092,1.478e-05,0.0,0 STARLINK-3831,1 52332U 22045B   23129.45872161  .00001478  00000-0  11092-3 0  9995,2 52332  53.2149 176.4550 0001236  78.7416 281.3715 15.08846472 59358,6917.861,95.437,540.581,538.871,0.0
52332.0,STARLINK-3831,PAYLOAD,2023-05-10 10:51:21,15.08840268,0.000137,53.2148,171.9948,80.4723,279.6424,0.00023779,3.499e-05,0.0,0 STARLINK-3831,1 52332U 22045B   23130.45232902  .00003499  00000-0  23779-3 0  9990,2 52332  53.2148 171.9948 0001370  80.4723 279.6424 15.08840268 59509,6917.88,95.438,540.692,538.797,0.0
52332.0,STARLINK-3831,PAYLOAD,2023-05-11 09:06:44,15.08842906,0.0001333,53.2147,167.8294,96.0534,264.061,0.00012285,1.668e-05,0.0,0 STARLINK-3831,1 52332U 22045B   23131.37968660  .00001668  00000-0  12285-3 0  9995,2 52332  53.2147 167.8294 0001333  96.0534 264.0610 15.08842906 59649,6917.872,95.437,540.659,538.814,0.0
52332.0,STARLINK-3831,PAYLOAD,2023-05-11 23:25:13,15.08837558,0.0001338,53.2148,165.1531,94.8104,265.3041,7.8052e-05,9.54e-06,0.0,0 STARLINK-3831,1 52332U 22045B   23131.97584988  .00000954  00000-0  78052-4 0  9990,2 52332  53.2148 165.1531 0001338  94.8104 265.3041 15.08837558 59738,6917.888,95.438,540.678,538.827,0.0
52332.0,STARLINK-3831,PAYLOAD,2023-05-12 18:29:51,15.08838776,0.0001337,53.2157,161.586,94.4307,265.6838,7.2458e-05,8.65e-06,0.0,0 STARLINK-3831,1 52332U 22045B   23132.77073153  .00000865  00000-0  72458-4 0  9991,2 52332  53.2157 161.5860 0001337  94.4307 265.6838 15.08838776 59856,6917.884,95.438,540.674,538.824,0.0
52332.0,STARLINK-3831,PAYLOAD,2023-05-13 07:12:55,15.08843944,0.0001306,53.2159,159.2073,90.1928,269.9214,0.00012081,1.636e-05,0.0,0 STARLINK-3831,1 52332U 22045B   23133.30064737  .00001636  00000-0  12081-3 0  9991,2 52332  53.2159 159.2073 0001306  90.1928 269.9214 15.08843944 59933,6917.868,95.437,540.637,538.83,0.0
52332.0,STARLINK-3831,PAYLOAD,2023-05-13 18:20:38,15.08839063,0.0001263,53.2155,157.1244,81.7885,278.3251,9.1147e-05,1.163e-05,0.0,0 STARLINK-3831,1 52332U 22045B   23133.76433084  .00001163  00000-0  91147-4 0  9992,2 52332  53.2155 157.1244 0001263  81.7885 278.3251 15.08839063 60008,6917.883,95.438,540.622,538.875,0.0
52332.0,STARLINK-3831,PAYLOAD,2023-05-14 07:03:44,15.08829814,0.0001313,53.2157,154.7465,88.2114,271.9028,6.3257e-05,7.19e-06,0.0,0 STARLINK-3831,1 52332U 22045B   23134.29426006  .00000719  00000-0  63257-4 0  9994,2 52332  53.2157 154.7465 0001313  88.2114 271.9028 15.08829814 60083,6917.912,95.438,540.685,538.868,0.0
52332.0,STARLINK-3831,PAYLOAD,2023-05-14 18:11:25,15.08835828,0.0001351,53.2161,152.6649,88.7376,271.3771,6.999e-05,8.26e-06,0.0,0 STARLINK-3831,1 52332U 22045B   23134.75793745  .00000826  00000-0  69990-4 0  9991,2 52332  53.2161 152.6649 0001351  88.7376 271.3771 15.08835828 60155,6917.893,95.438,540.693,538.824,0.0
52332.0,STARLINK-3831,PAYLOAD,2023-05-15 06:54:30,15.08843093,0.0001419,53.2165,150.2878,94.6507,265.4647,6.6938e-05,7.78e-06,0.0,0 STARLINK-3831,1 52332U 22045B   23135.28785280  .00000778  00000-0  66938-4 0  9990,2 52332  53.2165 150.2878 0001419  94.6507 265.4647 15.08843093 60232,6917.871,95.437,540.718,538.754,0.0
52332.0,STARLINK-3831,PAYLOAD,2023-05-15 10:05:16,15.08843212,0.0001386,53.216,149.691,87.4805,272.6345,5.8143e-05,6.38e-06,0.0,0 STARLINK-3831,1 52332U 22045B   23135.42033263  .00000638  00000-0  58143-4 0  9997,2 52332  53.2160 149.6910 0001386  87.4805 272.6345 15.08843212 60250,6917.871,95.437,540.694,538.777,0.0
52332.0,STARLINK-3831,PAYLOAD,2023-05-15 18:02:12,15.08837474,0.0001405,53.2161,148.2035,85.0229,275.0923,3.7469e-05,3.08e-06,0.0,0 STARLINK-3831,1 52332U 22045B   23135.75153710  .00000308  00000-0  37469-4 0  9995,2 52332  53.2161 148.2035 0001405  85.0229 275.0923 15.08837474 60308,6917.888,95.438,540.725,538.781,0.0
52332.0,STARLINK-3831,PAYLOAD,2023-05-16 08:20:41,15.08835075,0.0001305,53.2155,145.5272,86.1787,273.9354,6.4675e-05,7.41e-06,0.0,0 STARLINK-3831,1 52332U 22045B   23136.34770020  .00000741  00000-0  64675-4 0  9990,2 52332  53.2155 145.5272 0001305  86.1787 273.9354 15.08835075 60393,6917.895,95.438,540.663,538.858,0.0
